ONEWEB-0324             
1 49193U 21083H   22048.91667824 -.00006311  00000+0 -16051-1 0  9995
2 49193  87.9094 289.5651 0002074  69.0097 207.7334 13.18686016  3307
ONEWEB-0325             
1 49194U 21083J   22048.91667824 -.00006212  00000+0 -15801-1 0  9998
2 49194  87.9093 289.4532 0002328 107.1434 154.9231 13.18683715  3284
ONEWEB-0326             
1 49195U 21083K   22048.91667824 -.00006151  00000+0 -15645-1 0  9997
2 49195  87.9095 289.5475 0002024  79.6905 130.9329 13.18685385  3303
ONEWEB-0327             
1 49196U 21083L   22048.91667824 -.00007144  00000+0 -18166-1 0  9992
2 49196  87.9106 289.5042 0002458  55.1944 228.9945 13.18690362  3280
ONEWEB-0328             
1 49197U 21083M   22048.91667824 -.01294260  00000+0 -66650+0 0  9990
2 49197  87.6814 275.3225 0020988 108.5064 224.8407 14.18756212  3505
ONEWEB-0331             
1 49198U 21083N   22048.91667824 -.00006339  00000+0 -16124-1 0  9991
2 49198  87.9107 289.5496 0001937  71.7876 160.8699 13.18685599  3304
ONEWEB-0333             
1 49199U 21083P   22048.91667824 -.01378523  00000+0 -67833+0 0  9991
2 49199  87.6767 275.3289 0019441 106.4604  25.4930 14.21430937  3506
ONEWEB-0334             
1 49200U 21083Q   22048.91667824  .00028169  00000+0  29312-2 0  9992
2 49200  87.1981 272.8122 0004497  54.4577  40.6537 14.89719291  3550
ONEWEB-0335             
1 49201U 21083R   22049.25001157 -.01456627  00000+0 -73353+0 0  9990
2 49201  87.6807 275.2726 0022974  99.2132  11.8551 14.19766521 24565
ONEWEB-0336             
1 49202U 21083S   22048.91667824 -.01381159  00000+0 -69558+0 0  9991
2 49202  87.6809 275.3205 0021573  95.3362 184.6677 14.20182603  3499
ONEWEB-0337             
1 49203U 21083T   22048.91667824 -.01382215  00000+0 -68465+0 0  9992
2 49203  87.6692 275.3078 0022512  99.7192 265.5031 14.21056766  3507
ONEWEB-0338             
1 49204U 21083U   22049.25001157 -.00056652  00000+0 -59671-2 0  9996
2 49204  87.2040 272.8096 0005217  77.0597 259.9603 14.89780329 24681
ONEWEB-0339             
1 49205U 21083V   22048.91667824 -.01385322  00000+0 -69560+0 0  9993
2 49205  87.6824 275.3141 0021283 103.5147 228.1002 14.20356302  3506
ONEWEB-0340             
1 49206U 21083W   22048.91667824 -.00006129  00000+0 -15589-1 0  9992
2 49206  87.9096 289.5570 0001904  82.7817 208.6687 13.18685692  3284
ONEWEB-0341             
1 49207U 21083X   22048.91667824 -.00006218  00000+0 -15814-1 0  9993
2 49207  87.9117 289.4494 0002696  98.4694 156.2364 13.18686919  3282
ONEWEB-0342             
1 49208U 21083Y   22048.91667824  .00026924  00000+0  28002-2 0  9992
2 49208  87.2000 272.8537 0005310  76.0458  78.3950 14.89743735  3562
ONEWEB-0343             
1 49209U 21083Z   22048.91667824 -.00006256  00000+0 -15912-1 0  9996
2 49209  87.9108 289.5045 0002725 110.0735 159.3125 13.18686451  3287
ONEWEB-0344             
1 49210U 21083AA  22048.91667824 -.01381124  00000+0 -70141+0 0  9992
2 49210  87.6788 275.3059 0022228  96.3333  96.2214 14.19729081  3522
ONEWEB-0345             
1 49211U 21083AB  22049.25001157 -.01442459  00000+0 -72777+0 0  9998
2 49211  87.6863 275.2598 0022203  95.5636  25.2445 14.19641283 24566
ONEWEB-0346             
1 49212U 21083AC  22048.91667824 -.00006289  00000+0 -15995-1 0  9997
2 49212  87.9107 289.4992 0002090  66.2327 173.7617 13.18688831  3295
ONEWEB-0348             
1 49213U 21083AD  22049.25001157 -.00060871  00000+0 -64161-2 0  9994
2 49213  87.2026 272.7863 0004997  69.4744  32.9551 14.89775301 24684
ONEWEB-0350             
1 49214U 21083AE  22048.91667824 -.01374212  00000+0 -65053+0 0  9992
2 49214  87.6833 275.2913 0019298 102.9596  99.0870 14.23466114  3522
ONEWEB-0351             
1 49215U 21083AF  22048.91667824  .00023210  00000+0  24160-2 0  9996
2 49215  87.1957 272.7708 0004385  62.7090 180.8872 14.89727002  3543
ONEWEB-0352             
1 49216U 21083AG  22048.91667824 -.01425862  00000+0 -33828+0 0  9997
2 49216  87.6839 275.0290 0020970  97.1236  52.6233 14.57661637  3512
ONEWEB-0354             
1 49217U 21083AH  22048.91667824  .00027582  00000+0  28693-2 0  9999
2 49217  87.2010 272.8621 0003884  68.2883  64.6210 14.89735223  3555
ONEWEB-0355             
1 49218U 21083AJ  22048.91667824 -.01386506  00000+0 -70836+0 0  9990
2 49218  87.6747 275.3096 0019620 106.8102 226.0911 14.19455083  3513
ONEWEB-0357             
1 49219U 21083AK  22048.91667824  .00027904  00000+0  29020-2 0  9994
2 49219  87.2008 272.8609 0005462  78.2979 352.0344 14.89740224  3550
ONEWEB-0332             
1 49279U 21090A   22048.91667824  .00060488  00000+0  64515-2 0  9990
2 49279  87.3202 248.8606 0002412 186.0247  23.2692 14.88558182  3542
ONEWEB-0347             
1 49280U 21090B   22048.91667824  .00057343  00000+0  61293-2 0  9998
2 49280  87.2892 248.8935 0002492 128.5811 117.3387 14.88487814  3548
ONEWEB-0349             
1 49281U 21090C   22048.91667824  .00052907  00000+0  53068-2 0  9991
2 49281  87.2008 248.7144 0002886 149.7975 188.4990 14.91076336  3559
ONEWEB-0353             
1 49282U 21090D   22049.25001157 -.00236112  00000+0 -26353-1 0  9991
2 49282  87.3259 248.7574 0004175 143.6710  56.0306 14.88470450 20280
ONEWEB-0356             
1 49283U 21090E   22048.91667824  .00061012  00000+0  61184-2 0  9998
2 49283  87.2004 248.7202 0002041 148.2272 317.9646 14.91042051  3542
ONEWEB-0358             
1 49284U 21090F   22048.91667824  .00060254  00000+0  64335-2 0  9997
2 49284  87.3206 248.8566 0002201 121.7461  91.9163 14.88515936  3542
ONEWEB-0359             
1 49285U 21090G   22048.91667824  .00052974  00000+0  56629-2 0  9995
2 49285  87.2925 248.8943 0002426 129.2227 184.4201 14.88507446  3549
ONEWEB-0360             
1 49286U 21090H   22048.91667824  .00061106  00000+0  61275-2 0  9996
2 49286  87.2014 248.7333 0003577 210.9196 234.3071 14.91041290  3568
ONEWEB-0361             
1 49287U 21090J   22048.91667824  .00062360  00000+0  62485-2 0  9994
2 49287  87.2005 248.7238 0002177 155.2162  23.0435 14.91067363  3557
ONEWEB-0362             
1 49288U 21090K   22048.91667824  .00034165  00000+0  85016-1 0  9991
2 49288  87.9274 259.0619 0001112  90.3637 208.8444 13.19702858  3305
ONEWEB-0363             
1 49289U 21090L   22048.91667824  .00057741  00000+0  57929-2 0  9990
2 49289  87.2028 248.7592 0003400 122.7462 301.7080 14.91040656  3579
ONEWEB-0364             
1 49290U 21090M   22048.91667824  .00053230  00000+0  56905-2 0  9994
2 49290  87.3249 248.9345 0002429 133.6355 171.7170 14.88504792  3541
ONEWEB-0365             
1 49291U 21090N   22048.91667824  .00034643  00000+0  86203-1 0  9995
2 49291  87.9207 259.0421 0001728  93.6488 176.2942 13.19701303  3337
ONEWEB-0366             
1 49292U 21090P   22048.91667824  .00062519  00000+0  66929-2 0  9993
2 49292  87.3221 248.8906 0002223 149.6451   9.2637 14.88396161  3543
ONEWEB-0367             
1 49293U 21090Q   22048.91667824  .00056058  00000+0  56198-2 0  9992
2 49293  87.2050 248.7911 0002773 200.7554 202.8096 14.91081532  3559
ONEWEB-0368             
1 49294U 21090R   22048.91667824  .00053908  00000+0  57622-2 0  9997
2 49294  87.3271 248.9621 0002081 190.2998 187.9661 14.88506930  3543
ONEWEB-0369             
1 49295U 21090S   22048.91667824  .00115348  00000+0  28480+0 0  9992
2 49295  87.9209 258.9931 0001219  89.7976 194.4328 13.19643767  3294
ONEWEB-0370             
1 49296U 21090T   22048.91667824  .00061928  00000+0  62108-2 0  9995
2 49296  87.1986 248.6940 0001654 158.0552  31.5261 14.91034311  3554
ONEWEB-0371             
1 49297U 21090U   22048.91667824  .00035089  00000+0  87295-1 0  9998
2 49297  87.9241 258.9383 0001757  89.2284 166.0120 13.19711700  3318
ONEWEB-0372             
1 49298U 21090V   22048.91667824  .00091957  00000+0  91777-2 0  9996
2 49298  87.1998 248.6961 0003179 213.5235  94.8509 14.91058575  3567
ONEWEB-0373             
1 49299U 21090W   22048.91667824  .00060722  00000+0  64900-2 0  9991
2 49299  87.3222 248.8938 0002037 185.2031 283.2052 14.88472408  3554
ONEWEB-0374             
1 49300U 21090X   22048.91667824  .00061574  00000+0  65776-2 0  9992
2 49300  87.3252 248.9425 0001206 181.2723   9.4787 14.88489374  3545
ONEWEB-0375             
1 49301U 21090Y   22048.91667824  .00056182  00000+0  60030-2 0  9990
2 49301  87.3174 248.8562 0002103 170.9301  88.5814 14.88509332  3562
ONEWEB-0376             
1 49302U 21090Z   22048.91667824  .00037687  00000+0  85168-1 0  9998
2 49302  87.9447 258.9984 0001487  93.7203  16.2598 13.26147683  3306
ONEWEB-0377             
1 49303U 21090AA  22048.91667824  .00052814  00000+0  56456-2 0  9997
2 49303  87.3253 248.9390 0003087 122.5991 201.5916 14.88508763  3547
ONEWEB-0378             
1 49304U 21090AB  22048.91667824  .00053668  00000+0  53843-2 0  9993
2 49304  87.1953 248.6263 0002763 188.4184 179.8033 14.91063782  3542
ONEWEB-0379             
1 49305U 21090AC  22048.91667824  .00052843  00000+0  56481-2 0  9999
2 49305  87.3243 248.9133 0001019 143.5027 207.5811 14.88515557  3548
ONEWEB-0380             
1 49306U 21090AD  22048.91667824  .00034522  00000+0  85887-1 0  9995
2 49306  87.9248 259.0203 0001913  92.5923 184.6688 13.19713688  3301
ONEWEB-0381             
1 49307U 21090AE  22048.91667824  .00062734  00000+0  62843-2 0  9990
2 49307  87.2035 248.7654 0001835 139.0509  14.7952 14.91076210  3552
ONEWEB-0382             
1 49308U 21090AF  22048.91667824  .00060862  00000+0  61043-2 0  9992
2 49308  87.1989 248.6686 0002335 149.9259 313.5620 14.91036494  3554
ONEWEB-0383             
1 49309U 21090AG  22048.91667824  .00053403  00000+0  56853-2 0  9999
2 49309  87.3217 248.8935 0002198 163.8557 138.0385 14.88672761  3549
ONEWEB-0384             
1 49310U 21090AH  22048.91667824  .00059757  00000+0  59930-2 0  9998
2 49310  87.1982 248.6758 0001678 163.5827 284.8914 14.91046558  3550
